CCSDS_OMM_VERS = 2.0
CREATION_DATE  = 
ORIGINATOR     = 

OBJECT_NAME    = H-2A R/B
OBJECT_ID      = 2006-002B
CENTER_NAME    = EARTH
REF_FRAME      = TEME
TIME_SYSTEM    = UTC
MEAN_ELEMENT_THEORY = SGP/SGP4

EPOCH          = 2026-03-29T03:19:18.524640
MEAN_MOTION    = 15.16850001
ECCENTRICITY   = .0052422
INCLINATION    = 98.2445
RA_OF_ASC_NODE = 236.8455
ARG_OF_PERICENTER = 174.4683
MEAN_ANOMALY   = 185.7138

EPHEMERIS_TYPE = 0
CLASSIFICATION_TYPE = U
NORAD_CAT_ID   = 28932
ELEMENT_SET_NO = 999
REV_AT_EPOCH   = 9738
BSTAR          = .74856E-3
MEAN_MOTION_DOT = .15197E-3
MEAN_MOTION_DDOT = 0

CCSDS_OMM_VERS = 2.0
CREATION_DATE  = 
ORIGINATOR     = 

OBJECT_NAME    = RESURS-DK 1
OBJECT_ID      = 2006-021A
CENTER_NAME    = EARTH
REF_FRAME      = TEME
TIME_SYSTEM    = UTC
MEAN_ELEMENT_THEORY = SGP/SGP4

EPOCH          = 2026-03-28T23:24:06.485184
MEAN_MOTION    = 15.12864225
ECCENTRICITY   = .0001231
INCLINATION    = 69.9338
RA_OF_ASC_NODE = 187.1360
ARG_OF_PERICENTER = 52.5340
MEAN_ANOMALY   = 307.5938

EPHEMERIS_TYPE = 0
CLASSIFICATION_TYPE = U
NORAD_CAT_ID   = 29228
ELEMENT_SET_NO = 999
REV_AT_EPOCH   = 9044
BSTAR          = .15424E-3
MEAN_MOTION_DOT = .2612E-4
MEAN_MOTION_DDOT = 0

CCSDS_OMM_VERS = 2.0
CREATION_DATE  = 
ORIGINATOR     = 

OBJECT_NAME    = CZ-4B R/B
OBJECT_ID      = 2006-046C
CENTER_NAME    = EARTH
REF_FRAME      = TEME
TIME_SYSTEM    = UTC
MEAN_ELEMENT_THEORY = SGP/SGP4

EPOCH          = 2026-03-29T03:12:43.629120
MEAN_MOTION    = 15.17096769
ECCENTRICITY   = .0032763
INCLINATION    = 97.5560
RA_OF_ASC_NODE = 132.9891
ARG_OF_PERICENTER = 197.5218
MEAN_ANOMALY   = 162.4888

EPHEMERIS_TYPE = 0
CLASSIFICATION_TYPE = U
NORAD_CAT_ID   = 29507
ELEMENT_SET_NO = 999
REV_AT_EPOCH   = 6299
BSTAR          = .29185E-3
MEAN_MOTION_DOT = .5792E-4
MEAN_MOTION_DDOT = 0

CCSDS_OMM_VERS = 2.0
CREATION_DATE  = 
ORIGINATOR     = 

OBJECT_NAME    = CZ-2C R/B
OBJECT_ID      = 2007-010B
CENTER_NAME    = EARTH
REF_FRAME      = TEME
TIME_SYSTEM    = UTC
MEAN_ELEMENT_THEORY = SGP/SGP4

EPOCH          = 2026-03-29T04:05:01.872384
MEAN_MOTION    = 14.20253309
ECCENTRICITY   = .0058103
INCLINATION    = 98.3998
RA_OF_ASC_NODE = 200.4745
ARG_OF_PERICENTER = 236.9018
MEAN_ANOMALY   = 122.6573

EPHEMERIS_TYPE = 0
CLASSIFICATION_TYPE = U
NORAD_CAT_ID   = 31114
ELEMENT_SET_NO = 999
REV_AT_EPOCH   = 98248
BSTAR          = .96312E-4
MEAN_MOTION_DOT = .168E-5
MEAN_MOTION_DDOT = 0

CCSDS_OMM_VERS = 2.0
CREATION_DATE  = 
ORIGINATOR     = 

OBJECT_NAME    = COSMO-SKYMED 1
OBJECT_ID      = 2007-023A
CENTER_NAME    = EARTH
REF_FRAME      = TEME
TIME_SYSTEM    = UTC
MEAN_ELEMENT_THEORY = SGP/SGP4

EPOCH          = 2026-03-29T04:29:43.808640
MEAN_MOTION    = 14.96674645
ECCENTRICITY   = .000099
INCLINATION    = 97.8874
RA_OF_ASC_NODE = 279.3786
ARG_OF_PERICENTER = 100.6810
MEAN_ANOMALY   = 259.4522

EPHEMERIS_TYPE = 0
CLASSIFICATION_TYPE = U
NORAD_CAT_ID   = 31598
ELEMENT_SET_NO = 999
REV_AT_EPOCH   = 1782
BSTAR          = .39949E-3
MEAN_MOTION_DOT = .45E-4
MEAN_MOTION_DDOT = 0

CCSDS_OMM_VERS = 2.0
CREATION_DATE  = 
ORIGINATOR     = 

OBJECT_NAME    = COSMOS 2428
OBJECT_ID      = 2007-029A
CENTER_NAME    = EARTH
REF_FRAME      = TEME
TIME_SYSTEM    = UTC
MEAN_ELEMENT_THEORY = SGP/SGP4

EPOCH          = 2026-03-29T05:10:38.663328
MEAN_MOTION    = 14.12948452
ECCENTRICITY   = .00097
INCLINATION    = 70.9433
RA_OF_ASC_NODE = 162.3626
ARG_OF_PERICENTER = 256.9361
MEAN_ANOMALY   = 103.0677

EPHEMERIS_TYPE = 0
CLASSIFICATION_TYPE = U
NORAD_CAT_ID   = 31792
ELEMENT_SET_NO = 999
REV_AT_EPOCH   = 96685
BSTAR          = .12148E-4
MEAN_MOTION_DOT = -.25E-6
MEAN_MOTION_DDOT = 0

CCSDS_OMM_VERS = 2.0
CREATION_DATE  = 
ORIGINATOR     = 

OBJECT_NAME    = SL-16 R/B
OBJECT_ID      = 2007-029B
CENTER_NAME    = EARTH
REF_FRAME      = TEME
TIME_SYSTEM    = UTC
MEAN_ELEMENT_THEORY = SGP/SGP4

EPOCH          = 2026-03-29T05:15:04.747680
MEAN_MOTION    = 14.14843564
ECCENTRICITY   = .0002734
INCLINATION    = 70.9747
RA_OF_ASC_NODE = 131.3347
ARG_OF_PERICENTER = 277.8941
MEAN_ANOMALY   = 145.2253

EPHEMERIS_TYPE = 0
CLASSIFICATION_TYPE = U
NORAD_CAT_ID   = 31793
ELEMENT_SET_NO = 999
REV_AT_EPOCH   = 96813
BSTAR          = .3573E-4
MEAN_MOTION_DOT = .21E-6
MEAN_MOTION_DDOT = 0

CCSDS_OMM_VERS = 2.0
CREATION_DATE  = 
ORIGINATOR     = 

OBJECT_NAME    = KORONAS-FOTON
OBJECT_ID      = 2009-003A
CENTER_NAME    = EARTH
REF_FRAME      = TEME
TIME_SYSTEM    = UTC
MEAN_ELEMENT_THEORY = SGP/SGP4

EPOCH          = 2026-03-29T05:05:56.109408
MEAN_MOTION    = 15.43844729
ECCENTRICITY   = .0011767
INCLINATION    = 82.4275
RA_OF_ASC_NODE = 255.5703
ARG_OF_PERICENTER = 86.4859
MEAN_ANOMALY   = 273.7734

EPHEMERIS_TYPE = 0
CLASSIFICATION_TYPE = U
NORAD_CAT_ID   = 33504
ELEMENT_SET_NO = 999
REV_AT_EPOCH   = 94875
BSTAR          = .43009E-3
MEAN_MOTION_DOT = .196E-3
MEAN_MOTION_DDOT = 0

CCSDS_OMM_VERS = 2.0
CREATION_DATE  = 
ORIGINATOR     = 

OBJECT_NAME    = CZ-2C R/B
OBJECT_ID      = 2011-030B
CENTER_NAME    = EARTH
REF_FRAME      = TEME
TIME_SYSTEM    = UTC
MEAN_ELEMENT_THEORY = SGP/SGP4

EPOCH          = 2026-03-28T20:42:13.557024
MEAN_MOTION    = 14.81288346
ECCENTRICITY   = .0051114
INCLINATION    = 97.8576
RA_OF_ASC_NODE = 44.7469
ARG_OF_PERICENTER = 288.6356
MEAN_ANOMALY   = 124.8699

EPHEMERIS_TYPE = 0
CLASSIFICATION_TYPE = U
NORAD_CAT_ID   = 37731
ELEMENT_SET_NO = 999
REV_AT_EPOCH   = 79293
BSTAR          = .20784075E-3
MEAN_MOTION_DOT = .1602E-4
MEAN_MOTION_DDOT = 0

CCSDS_OMM_VERS = 2.0
CREATION_DATE  = 
ORIGINATOR     = 

OBJECT_NAME    = H-2A R/B
OBJECT_ID      = 2012-025E
CENTER_NAME    = EARTH
REF_FRAME      = TEME
TIME_SYSTEM    = UTC
MEAN_ELEMENT_THEORY = SGP/SGP4

EPOCH          = 2026-03-28T20:49:22.599552
MEAN_MOTION    = 14.95301389
ECCENTRICITY   = .00427481
INCLINATION    = 98.4762
RA_OF_ASC_NODE = 56.4548
ARG_OF_PERICENTER = 249.4379
MEAN_ANOMALY   = 110.2251

EPHEMERIS_TYPE = 0
CLASSIFICATION_TYPE = U
NORAD_CAT_ID   = 38341
ELEMENT_SET_NO = 999
REV_AT_EPOCH   = 75108
BSTAR          = .3420113E-3
MEAN_MOTION_DOT = .3767E-4
MEAN_MOTION_DDOT = 0

CCSDS_OMM_VERS = 2.0
CREATION_DATE  = 
ORIGINATOR     = 

OBJECT_NAME    = SHIJIAN-16 (SJ-16)
OBJECT_ID      = 2013-057A
CENTER_NAME    = EARTH
REF_FRAME      = TEME
TIME_SYSTEM    = UTC
MEAN_ELEMENT_THEORY = SGP/SGP4

EPOCH          = 2026-03-29T04:53:33.058176
MEAN_MOTION    = 14.92424360
ECCENTRICITY   = .0015254
INCLINATION    = 74.9724
RA_OF_ASC_NODE = 148.1476
ARG_OF_PERICENTER = 61.7079
MEAN_ANOMALY   = 298.5647

EPHEMERIS_TYPE = 0
CLASSIFICATION_TYPE = U
NORAD_CAT_ID   = 39358
ELEMENT_SET_NO = 999
REV_AT_EPOCH   = 67441
BSTAR          = .22258E-3
MEAN_MOTION_DOT = .2257E-4
MEAN_MOTION_DDOT = 0

CCSDS_OMM_VERS = 2.0
CREATION_DATE  = 
ORIGINATOR     = 

OBJECT_NAME    = SL-4 R/B
OBJECT_ID      = 2014-021B
CENTER_NAME    = EARTH
REF_FRAME      = TEME
TIME_SYSTEM    = UTC
MEAN_ELEMENT_THEORY = SGP/SGP4

EPOCH          = 2026-03-28T18:40:45.287616
MEAN_MOTION    = 15.39833982
ECCENTRICITY   = .00955676
INCLINATION    = 51.6044
RA_OF_ASC_NODE = 244.1089
ARG_OF_PERICENTER = 172.5582
MEAN_ANOMALY   = 187.6847

EPHEMERIS_TYPE = 0
CLASSIFICATION_TYPE = U
NORAD_CAT_ID   = 39679
ELEMENT_SET_NO = 999
REV_AT_EPOCH   = 65921
BSTAR          = .4770132E-3
MEAN_MOTION_DOT = .22219E-3
MEAN_MOTION_DDOT = 0

